GNOMES-4                
1 58462U 23185A   24273.84173096  .00014478  00000+0  11690-2 0  9992
2 58462  97.5936 338.1819 0014057 287.7174  72.2515 14.99866002 45479
KORSAT 7                
1 58463U 23185B   24273.92318496  .00006893  00000+0  54450-3 0  9991
2 58463  97.6305 338.8322 0021317 308.5342  51.3971 15.00819885 45499
KOYOH                   
1 58464U 23185C   24273.83523042  .00013873  00000+0  93200-3 0  9999
2 58464  97.6112 339.5221 0007203 307.0412  53.0156 15.06881154 45557
BANE                    
1 58465U 23185D   24273.93414562  .00030468  00000+0  12077-2 0  9998
2 58465  97.4169 338.9772 0007363 275.1014  84.9383 15.25316444 46059
UHETSAT                 
1 58466U 23185E   24273.92450327  .00015475  00000+0  74367-3 0  9999
2 58466  97.4336 337.8081 0016691   3.1580 356.9756 15.18790179 45955
LILIUM-1                
1 58467U 23185F   24273.92491395  .00017320  00000+0  73135-3 0  9993
2 58467  97.4159 338.7707 0009131 274.9592  85.0602 15.23292523 46043
SPIRIT                  
1 58468U 23185G   24273.81963532  .00029325  00000+0  12022-2 0  9994
2 58468  97.4148 338.6199 0010302 275.4800  84.5262 15.24169806 46028
ION SCV-015             
1 58469U 23185H   24273.92237344  .00012776  00000+0  61943-3 0  9991
2 58469  97.5806 340.1490 0013439 143.7531 216.4616 15.18574845 45625
ROBUSTA-1E (ENSO)       
1 58470U 23185J   24273.94018748  .00043594  00000+0  15378-2 0  9992
2 58470  97.4153 339.8698 0010168 264.5283  95.4797 15.29071108 46114
HAYASAT-1               
1 58471U 23185K   24273.81999679  .00065927  00000+0  20075-2 0  9994
2 58471  97.4138 340.4646 0009439 259.2961 100.7219 15.33707290 46147
EIRSAT-1                
1 58472U 23185L   24273.91935385  .00047751  00000+0  16159-2 0  9993
2 58472  97.4146 340.0206 0009689 264.1003  95.9133 15.30406453 46126
STARLINK-30947          
1 58473U 23186A   24273.75559250  .00001887  00000+0  15476-3 0  9992
2 58473  43.0057  45.5496 0001300 278.2492  81.8202 15.02533520 46736
STARLINK-30995          
1 58474U 23186B   24273.91667824  .00225289  00000+0  74423-2 0  9998
2 58474  43.0073 357.8910 0001186 315.4585 221.2737 15.29732235  5601
STARLINK-30941          
1 58475U 23186C   24273.68245295  .00001181  00000+0  10246-3 0  9994
2 58475  43.0047  45.8589 0001668 276.4014  83.6639 15.02538914 46725
STARLINK-30980          
1 58476U 23186D   24273.74560719  .00000708  00000+0  67472-4 0  9991
2 58476  43.0045  45.4727 0001229 275.5945  84.4757 15.02536819 46733
STARLINK-30965          
1 58477U 23186E   24273.63621885  .00000707  00000+0  67437-4 0  9992
2 58477  43.0053  33.3699 0001417 269.3586  90.7094 15.02531117 46862
STARLINK-30990          
1 58478U 23186F   24273.67579771  .00001148  00000+0  10008-3 0  9994
2 58478  43.0056  45.8073 0001571 266.6190  93.4472 15.02535457 46762
STARLINK-30974          
1 58479U 23186G   24273.91667824  .00130644  00000+0  20209-2 0  9996
2 58479  43.0031 260.2628 0010473 142.8056 319.4680 15.52839779  5959
STARLINK-30984          
1 58480U 23186H   24273.76212952  .00001248  00000+0  10743-3 0  9999
2 58480  43.0043  44.7343 0001347 273.1885  86.8804 15.02540834 46742
STARLINK-30956          
1 58481U 23186J   24273.64556382  .00000241  00000+0  32883-4 0  9997
2 58481  43.0056  21.1621 0001297 279.9474  80.1222 15.02552381 47008
STARLINK-30997          
1 58482U 23186K   24273.71229181  .00000432  00000+0  47071-4 0  9997
2 58482  43.0020  45.1938 0001355 273.5356  86.5332 15.02541308 46739
STARLINK-30994          
1 58483U 23186L   24273.57983069  .00007543  00000+0  29760-3 0  9998
2 58483  43.0045 346.9469 0001235 271.1673  88.9037 15.25944599 47307
STARLINK-30991          
1 58484U 23186M   24273.75880244  .00001737  00000+0  14366-3 0  9995
2 58484  43.0052  44.7040 0001294 259.8229 100.2467 15.02534631 46737
STARLINK-30979          
1 58485U 23186N   24273.66913635  .00003906  00000+0  30412-3 0  9997
2 58485  43.0016  45.7543 0001317 270.8952  89.1740 15.02528372 46711
STARLINK-31005          
1 58486U 23186P   24273.66580487  .00001050  00000+0  92790-4 0  9999
2 58486  43.0046  45.7288 0001635 272.7688  87.2967 15.02536691 46714
STARLINK-30987          
1 58487U 23186Q   24273.72895770  .00004791  00000+0  36957-3 0  9998
2 58487  43.0045  45.3426 0001267  16.5893 343.4991 15.02525809 46721
STARLINK-31000          
1 58488U 23186R   24273.72561259  .00001996  00000+0  16278-3 0  9999
2 58488  43.0068  45.3176 0001324 252.1006 107.9692 15.02542693 46728
STARLINK-30993          
1 58489U 23186S   24273.72229540  .00002048  00000+0  16660-3 0  9998
2 58489  42.9992  45.2985 0001178 260.1653  99.9057 15.02536094 46727
STARLINK-30978          
1 58490U 23186T   24273.78544321  .00000833  00000+0  76761-4 0  9992
2 58490  43.0020  44.9120 0001222 279.0732  80.9972 15.02537931 46735
STARLINK-30953          
1 58491U 23186U   24273.60949261  .00007463  00000+0  29457-3 0  9991
2 58491  43.0051 358.4734 0001257 280.4198  79.6512 15.25940213 47174
STARLINK-30986          
1 58492U 23186V   24273.64249254  .00002716  00000+0  21604-3 0  9993
2 58492  43.0038  45.5554 0001227 268.6075  91.4626 15.02543687 46719
STARLINK-30985          
1 58493U 23186W   24273.70564403  .00001705  00000+0  14126-3 0  9995
2 58493  43.0027  45.1713 0001330 269.5724  90.4966 15.02542001 46723
STARLINK-30981          
1 58494U 23186X   24273.83526151  .00005368  00000+0  41192-3 0  9990
2 58494  43.0038  44.4220 0001338 273.8522  86.2167 15.02554816 46748
STARLINK-31002          
1 58495U 23186Y   24273.63251021 -.00000823  00000+0 -45879-4 0  9990
2 58495  43.0010  45.4787 0000912 252.2560 107.8182 15.02537053 46884
2023-187A               
1 58496U 23187A   24273.94302233  .00009012  00000+0  11672-2 0  9997
2 58496  97.9801 349.2705 0012453  26.0366 334.1471 14.81012306 44463
MISRSAT-2               
1 58497U 23187B   24273.89334528  .00005360  00000+0  71564-3 0  9993
2 58497  97.9814 349.0734 0012024  25.1494 335.0301 14.79926533 44436
2023-187C               
1 58498U 23187C   24273.81295523  .00008044  00000+0  10479-2 0  9996
2 58498  97.9808 349.1476 0011756  25.6622 334.5171 14.80810821 44436
DOORY-SAT               
1 58500U 23188A   24273.87902929  .00005275  00000+0  76599-3 0  9991
2 58500  46.9815 109.7002 0009153 299.7480  60.2502 14.77061637 44419
2023-189A               
1 58502U 23189A   24273.92444640  .00010530  00000+0  42755-3 0  9998
2 58502  97.4636 279.5947 0011812 323.2972  36.7456 15.24712451 45632
2023-189B               
1 58503U 23189B   24273.94308659  .00028722  00000+0  96303-3 0  9990
2 58503  97.4579 280.7297 0010351 326.7745  33.2844 15.30814966 45717
2023-190A               
1 58505U 23190A   24273.81591695  .00000144  00000+0  23840-3 0  9998
2 58505  86.5118 188.9050 0002242  66.4728 293.6650 13.39483447 40975
STARLINK-31026          
1 58508U 23191A   24273.88239511  .00001305  00000+0  11164-3 0  9991
2 58508  43.0020  84.1518 0001461 278.9594  81.1083 15.02545457 46335
STARLINK-31020          
1 58509U 23191B   24273.87916553 -.00014511  00000+0 -10593-2 0  9998
2 58509  43.0026  84.9788 0001746 263.7787  96.2857 15.02606779 46321
STARLINK-30989          
1 58510U 23191C   24273.76141143  .00002674  00000+0  21294-3 0  9999
2 58510  43.0019  84.1095 0001161 266.5422  93.5288 15.02536796 46358
STARLINK-30968          
1 58511U 23191D   24273.75808014  .00000654  00000+0  63484-4 0  9990
2 58511  42.9999  84.0835 0001038 263.2842  96.7882 15.02539359 46328
STARLINK-30982          
1 58512U 23191E   24273.75474688  .00001426  00000+0  12061-3 0  9999
2 58512  43.0027  84.0599 0001382 272.4848  87.5836 15.02543301 46329
STARLINK-30998          
1 58513U 23191F   24273.75143274 -.00000610  00000+0 -30109-4 0  9994
2 58513  43.0011  84.0270 0000950 261.9218  98.1517 15.02524717 46350
STARLINK-30983          
1 58514U 23191G   24273.84109330 -.00002171  00000+0 -14565-3 0  9991
2 58514  43.0040  82.9965 0001386 274.7357  85.3327 15.02536082 45995
STARLINK-31017          
1 58515U 23191H   24273.89852537  .00004767  00000+0  12129-3 0  9996
2 58515  42.9983 340.6987 0000315 216.3507 143.7328 15.40698570 47533
STARLINK-31028          
1 58516U 23191J   24273.87771836  .00000082  00000+0  21117-4 0  9991
2 58516  43.0029  83.2576 0001133 263.1206  96.9507 15.02537501 46346
STARLINK-31011          
1 58517U 23191K   24273.81456917 -.00004280  00000+0 -30186-3 0  9997
2 58517  43.0006  83.6444 0000854 280.5402  79.5344 15.02552887 46339
STARLINK-31021          
1 58518U 23191L   24273.76461371  .00002073  00000+0  16838-3 0  9996
2 58518  43.0048  83.2584 0001054 275.9829  84.0893 15.02551615 46339
STARLINK-31010          
1 58519U 23191M   24273.76792948  .00002280  00000+0  18376-3 0  9993
2 58519  43.0029  83.2471 0002256 275.7961  84.2624 15.02548379 46331
STARLINK-31003          
1 58520U 23191N   24273.87439348  .00000391  00000+0  44042-4 0  9990
2 58520  43.0037  83.2321 0001087 275.7908  84.2811 15.02533256 46345
STARLINK-31015          
1 58521U 23191P   24273.87106197 -.00001179  00000+0 -72210-4 0  9999
2 58521  43.0043  83.2086 0001240 261.4427  98.6275 15.02528751 46314
STARLINK-31023          
1 58522U 23191Q   24273.53533852 -.00000082  00000+0  90074-5 0  9995
2 58522  43.0016  84.9853 0001182 269.8217  90.2490 15.02548016 46299
STARLINK-30932          
1 58523U 23191R   24273.53201481  .00000637  00000+0  62233-4 0  9996
2 58523  42.9998  84.9603 0001107 284.8398  75.2322 15.02532281 46243
STARLINK-30992          
1 58524U 23191S   24273.86107549 -.00000465  00000+0 -19325-4 0  9998
2 58524  43.0023  83.1310 0001130 267.5888  92.4825 15.02546417 46345
STARLINK-30948          
1 58525U 23191T   24273.85773391  .00002202  00000+0  17797-3 0  9991
2 58525  43.0028  83.1058 0001351 271.9093  88.1595 15.02544637 46340
STARLINK-31013          
1 58526U 23191U   24273.85441174  .00000406  00000+0  45122-4 0  9991
2 58526  43.0030  83.0785 0001283 274.7330  85.3365 15.02538854 46347
